ONEWEB-0228             
1 48780U 21045P   24091.88038609  .00000070  00000+0  15260-3 0  9990
2 48780  87.8990  59.8339 0001809  79.7452 280.3882 13.15548707138182
